#cP2023 10  3  0  0  0.00000000      96 ORBIT IGS20 HLM  IGS
## 2282 172800.00000000   900.00000000 60220 0.0000000000000
+   32   G01G02G03G04G05G06G07G08G09G10G11G12G13G14G15G16G17
+        G18G19G20G21G22G23G24G25G26G27G28G29G30G31G32  0  0
+          0  0  0  0  0  0  0  0  0  0  0  0  0  0  0  0  0
+          0  0  0  0  0  0  0  0  0  0  0  0  0  0  0  0  0
+          0  0  0  0  0  0  0  0  0  0  0  0  0  0  0  0  0
++         3  2  2  2  2  2  2  2  2  2  3  2  2  2  2  2  2
++         3  2  2  2  2  2  2  2  2  2  3  2  2  2  2  0  0
++         0  0  0  0  0  0  0  0  0  0  0  0  0  0  0  0  0
++         0  0  0  0  0  0  0  0  0  0  0  0  0  0  0  0  0
++         0  0  0  0  0  0  0  0  0  0  0  0  0  0  0  0  0
%c G  cc GPS ccc cccc cccc cccc cccc ccccc ccccc ccccc ccccc
%c cc cc ccc ccc cccc cccc cccc cccc ccccc ccccc ccccc ccccc
%f  1.2500000  1.025000000  0.00000000000  0.000000000000000
%f  0.0000000  0.000000000  0.00000000000  0.000000000000000
%i    0    0    0    0      0      0      0      0         0
%i    0    0    0    0      0      0      0      0         0
/* RAPID ORBIT COMBINATION FROM WEIGHTED AVERAGE OF:        
/* cod emr esa gfz grg jgx jpl ngs sio usn whu              
/* REFERENCED TO IGS TIME (IGST) AND TO WEIGHTED MEAN POLE: 
/* PCV:IGS20      OL/AL:FES2014b NONE     Y  ORB:CMB CLK:CMB
*  2023 10  3 22 30  0.00000000
PG01 -19884.654451 -14739.875492 -10424.128471    164.234006 11  9  4 113       
PG02 -15468.579853 -14906.120391 -15233.321983   -546.440509  9  5  5 113       
PG03 -12189.980609 -20023.267467  12442.334669   -100.030070  5  6  6 102       
PG04 -12942.978879  -8783.152843  21487.051108    174.208881  6  5  3  92       
PG05   5379.972832  25927.565701   1043.167009   -145.132732  5  6  5  77       
PG06 -15280.997112   8471.233236  20100.225674    538.155390  7  6  7  98       
PG07 -25710.614971  -5403.924346  -4893.536888     50.093098  9  6  5  67       
PG08  -4080.864123 -16061.554930 -20746.845384   -145.316276  8  6  6  98       
PG09 -19570.644263    616.587148  17884.590359    -42.477571  7  6  4  92       
PG10  11939.960861 -11264.518725 -20620.631661    -55.901438  6  5  6 118       
PG11  -1898.496449  15355.585219  21609.044912   -398.573745  6  7  8 103       
PG12   9517.446913  22672.508747   9863.678937   -431.869106  3  3  5  87       
PG13  -6401.207732  18643.818462 -17894.532859    579.888237  6  5  5 112       
PG14 -14172.899738   7546.494865 -21110.489452    203.520601  6  7  7 110       
PG15   7138.719713  15367.298017 -20896.830704     83.604459  7  3  5  89       
PG16   1246.895455 -25667.321289   5375.637956   -444.734010  4  5  8 117       
PG17 -22625.443389  13050.151041  -4705.749585    723.868619  5  5  5 101       
PG18  25223.441812   3835.861562  -7706.995557   -437.584526  9  8  9  79       
PG19 -20380.003078  16442.369308   2946.399512    380.063279  4  5  5  99       
PG20   -960.096453  23425.713200  12697.996402    408.656649  4  6  6  74       
PG21 -12990.946183 -15607.677336 -17062.199701    147.579863 11  7  8 104       
PG22 -11271.117616  15316.838747 -18199.419193    109.727073  6  5  4 103       
PG23  15456.200221   2745.155341 -21444.950062     77.339159  8  5  6 109       
PG24  16943.849799  15237.261128 -14367.939375   -336.635485 10  8  6 108       
PG25  15522.283187  11040.764117  18300.235429    470.957700  5  6  6  92       
PG26   6081.266529 -20753.735186  15058.165199    225.228869  5  5  6  97       
PG27   8470.007356 -20557.008205 -14464.785446    -49.574618  6  4  5  74       
PG28  16945.670198  -8313.342360  18664.582954    -19.360201  6  5  6  89       
PG29  19565.507584    773.526429  17950.625929   -609.831447  3  6  5  95       
PG30 -22430.384582   2912.207032 -14009.840250   -482.017064  9  6  9  91       
PG31   8057.666826 -13180.858063  21441.122857   -224.208005  5  5  7  96       
PG32  20601.800368 -16486.305381  -1609.605273   -567.512251  7  7  5  99       
*  2023 10  3 22 45  0.00000000
PG01 -18643.166631 -14441.485779 -12893.230464    164.233432  9  8  2 100       
PG02 -13552.014159 -14633.223590 -17126.736157   -546.436430  9  5  5 113       
PG03 -12304.798209 -21324.723565   9956.604636   -100.010133  5  6  6  98       
PG04 -11075.916867 -10405.190594  21793.208239    174.218754  5  5  3  77       
PG05   5066.346173  25698.123580   3899.975217   -145.133995  5  6  5  90       
PG06 -17344.055783   7712.300195  18684.810065    538.148347  8  6  7 100       
PG07 -26063.029753  -5776.390796  -2122.833635     50.083615  9  7  6  70       
PG08  -2343.965300 -17590.010435 -19711.926491   -145.318083  8  6  6 105       
PG09 -18115.682545   -965.385780  19331.575470    -42.468018  7  7  4  93       
PG10  12540.321739  -8892.785264 -21429.748823    -55.902654  6  6  7 113       
PG11  -4231.506708  14509.559026  21856.912965   -398.589619  6  6  8 113       
PG12   9442.884521  23705.200982   7236.262044   -431.872793  4  4  5  99       
PG13  -8065.064631  19603.031526 -16065.609747    579.892118  7  5  5 109       
PG14 -14678.423619   5150.020173 -21497.034494    203.530686  7  7  7 108       
PG15   5626.000875  17046.632375 -19995.453100     83.607872  8  3  6  99       
PG16   1624.009147 -24891.008491   8120.022783   -444.729140  4  6  7 114       
PG17 -22179.517831  12417.228664  -7463.754533    723.868648  6  6  5 110       
PG18  25844.710325   4249.307007  -4956.684853   -437.595376  8  8  9  72       
PG19 -20686.381186  16355.076142     56.043886    380.067687  5  6  5  98       
PG20  -1746.321444  22054.423845  14872.524538    408.654396  4  7  6  76       
PG21 -10910.181364 -15257.096671 -18630.922966    147.579088 11  6  7 110       
PG22 -11669.999042  13110.061418 -19560.641122    109.720500  6  5  4 111       
PG23  15990.579659   5086.493017 -20625.596816     77.344221  8  5  7 112       
PG24  15254.022485  15070.247623 -16318.096981   -336.644607  9  8  6 105       
PG25  15841.416523  13072.810194  16666.371766    470.959424  4  6  6 100       
PG26   6848.907168 -19031.252486  16909.042138    225.226960  5  4  5  96       
PG27   9715.815564 -21419.920590 -12175.188520    -49.580008  6  4  6  89       
PG28  18878.080998  -7624.558799  17035.141551    -19.365783  7  5  6  78       
PG29  17946.997757   2180.116754  19450.015586   -609.831535  3  6  4  95       
PG30 -23772.929441   2221.055409 -11787.787785   -482.013843 10  7 10  93       
PG31  10380.334538 -12356.646991  20969.340059   -224.208153  5  4  7  91       
PG32  20517.786586 -16035.906815  -4448.269366   -567.517267  7  7  5 101       
*  2023 10  3 23  0  0.00000000
PG01 -17132.789909 -14145.924535 -15148.181580    164.232772  8  7    123       
PG02 -11421.676892 -14429.262429 -18716.213552   -546.432294  9  5  4 113       
PG03 -12412.424839 -22335.727623   7299.440092    -99.990187  6  6  6 111       
PG04  -9286.060512 -12133.243403  21724.731806    174.228595  5  5  3  94       
PG05   4637.393881  25181.246749   6689.045848   -145.135211  5  7  5  84       
PG06 -19274.401272   7117.243655  16950.557421    538.141329  9  6  7 110       
PG07 -26131.751875  -6048.944184    683.564727     50.074287  9  7  6  89       
PG08   -776.779885 -19106.953739 -18336.398658   -145.319922  9  6  7  96       
PG09 -16644.562897  -2727.091151  20444.046856    -42.458426  8  8  5  96       
PG10  13287.701823  -6491.402790 -21862.286152    -55.902738  7  6  7 115       
PG11  -6613.071047  13786.231062  21729.270847   -398.605586  6  6  8 104       
PG12   9361.684876  24439.915404   4483.752693   -431.876681  5  5  5 101       
PG13  -9502.297032  20514.045391 -13961.387865    579.895960  7  5  5 100       
PG14 -15308.001260   2761.312178 -21512.632675    203.540798  7  7  7 110       
PG15   4263.247119  18704.634674 -18761.788403     83.610782  8  3  7  98       
PG16   2099.630990 -23832.656136  10719.342908   -444.723555  6  6  7 119       
PG17 -21542.381159  11550.944386 -10092.264154    723.868857  7  6  5 112       
PG18  26183.239583   4545.519654  -2121.977490   -437.606231  8  8 10  69       
PG19 -20741.767981  16073.958189  -2835.316949    380.072593  6  6  6  96       
PG20  -2701.487256  20516.615196  16793.898358    408.652934  5  7  6  62       
PG21  -8645.323676 -14991.208521 -19874.520767    147.577712 11  6  6 101       
PG22 -12209.181050  10788.245484 -20574.439636    109.713963  6  6  4 115       
PG23  16617.608178   7286.049600 -19452.490696     77.349294  9  4  7 114       
PG24  13359.536590  14954.949462 -17999.290997   -336.653760  9  8  7 102       
PG25  16205.209174  14888.195994  14742.100255    470.961143  4  6  6  93       
PG26   7761.171120 -17165.747893  18462.386763    225.225137  5  4  5 105       
PG27  10729.762579 -22151.255237  -9674.297354    -49.585358  6  5  6  92       
PG28  20646.981775  -7080.264442  15112.092096    -19.371508  8  5  7  87       
PG29  16293.480787   3773.546907  20614.505716   -609.831772  3  6  4  93       
PG30 -24893.300686   1663.331743  -9364.383848   -482.010650 11  8 10  93       
PG31  12665.927175 -11673.156154  20132.644097   -224.208746  5  4  7  93       
PG32  20237.434962 -15349.744441  -7209.119140   -567.522271  7  7  6  97       
EOF
